[{"OBJECT_NAME":"STARLINK-2751","OBJECT_ID":"2021-044AZ","EPOCH":"2026-01-17T11:51:13.936320","MEAN_MOTION":15.06388336,"ECCENTRICITY":0.00013505,"INCLINATION":53.0554,"RA_OF_ASC_NODE":301.4933,"ARG_OF_PERICENTER":84.7721,"MEAN_ANOMALY":275.3422,"EPHEMERIS_TYPE":0,"CLASSIFICATION_TYPE":"U","NORAD_CAT_ID":48685,"ELEMENT_SET_NO":999,"REV_AT_EPOCH":25669,"BSTAR":-4.8218944e-5,"MEAN_MOTION_DOT":-9.99e-6,"MEAN_MOTION_DDOT":0},{"OBJECT_NAME":"STARLINK-2629","OBJECT_ID":"2021-044BA","EPOCH":"2026-01-17T19:40:18.909984","MEAN_MOTION":15.06382789,"ECCENTRICITY":0.00014572,"INCLINATION":53.0529,"RA_OF_ASC_NODE":305.2627,"ARG_OF_PERICENTER":79.4411,"MEAN_ANOMALY":280.6742,"EPHEMERIS_TYPE":0,"CLASSIFICATION_TYPE":"U","NORAD_CAT_ID":48686,"ELEMENT_SET_NO":999,"REV_AT_EPOCH":25666,"BSTAR":0.00021025688,"MEAN_MOTION_DOT":2.85e-5,"MEAN_MOTION_DDOT":0},{"OBJECT_NAME":"STARLINK-2627","OBJECT_ID":"2021-044BB","EPOCH":"2026-01-17T22:15:31.088160","MEAN_MOTION":15.06394362,"ECCENTRICITY":0.00014598,"INCLINATION":53.0556,"RA_OF_ASC_NODE":294.4996,"ARG_OF_PERICENTER":82.5567,"MEAN_ANOMALY":277.5588,"EPHEMERIS_TYPE":0,"CLASSIFICATION_TYPE":"U","NORAD_CAT_ID":48687,"ELEMENT_SET_NO":999,"REV_AT_EPOCH":25682,"BSTAR":-0.00011941129,"MEAN_MOTION_DOT":-2.059e-5,"MEAN_MOTION_DDOT":0},{"OBJECT_NAME":"STARLINK-2742","OBJECT_ID":"2021-044BC","EPOCH":"2026-01-17T22:20:51.107712","MEAN_MOTION":15.06392592,"ECCENTRICITY":0.00016574,"INCLINATION":53.0582,"RA_OF_ASC_NODE":294.4836,"ARG_OF_PERICENTER":102.2464,"MEAN_ANOMALY":257.8711,"EPHEMERIS_TYPE":0,"CLASSIFICATION_TYPE":"U","NORAD_CAT_ID":48688,"ELEMENT_SET_NO":999,"REV_AT_EPOCH":25682,"BSTAR":-2.6074303e-5,"MEAN_MOTION_DOT":-6.7e-6,"MEAN_MOTION_DDOT":0},{"OBJECT_NAME":"STARLINK-2740","OBJECT_ID":"2021-044BE","EPOCH":"2026-01-17T19:26:20.185440","MEAN_MOTION":15.06399217,"ECCENTRICITY":0.00016311,"INCLINATION":53.0563,"RA_OF_ASC_NODE":310.0244,"ARG_OF_PERICENTER":102.4024,"MEAN_ANOMALY":257.7147,"EPHEMERIS_TYPE":0,"CLASSIFICATION_TYPE":"U","NORAD_CAT_ID":48690,"ELEMENT_SET_NO":999,"REV_AT_EPOCH":25659,"BSTAR":4.1232275e-5,"MEAN_MOTION_DOT":3.33e-6,"MEAN_MOTION_DDOT":0},{"OBJECT_NAME":"STARLINK-2750","OBJECT_ID":"2021-044BF","EPOCH":"2026-01-17T23:33:49.538304","MEAN_MOTION":15.06392978,"ECCENTRICITY":0.00016134,"INCLINATION":53.0544,"RA_OF_ASC_NODE":304.254,"ARG_OF_PERICENTER":90.1305,"MEAN_ANOMALY":269.9869,"EPHEMERIS_TYPE":0,"CLASSIFICATION_TYPE":"U","NORAD_CAT_ID":48691,"ELEMENT_SET_NO":999,"REV_AT_EPOCH":25669,"BSTAR":-6.0057224e-5,"MEAN_MOTION_DOT":-1.176e-5,"MEAN_MOTION_DDOT":0},{"OBJECT_NAME":"STARLINK-2752","OBJECT_ID":"2021-044BG","EPOCH":"2026-01-17T12:03:49.618368","MEAN_MOTION":15.06400087,"ECCENTRICITY":0.00014055,"INCLINATION":53.0547,"RA_OF_ASC_NODE":306.5307,"ARG_OF_PERICENTER":90.1021,"MEAN_ANOMALY":270.0129,"EPHEMERIS_TYPE":0,"CLASSIFICATION_TYPE":"U","NORAD_CAT_ID":48692,"ELEMENT_SET_NO":999,"REV_AT_EPOCH":25662,"BSTAR":4.98182e-5,"MEAN_MOTION_DOT":4.61e-6,"MEAN_MOTION_DDOT":0},{"OBJECT_NAME":"STARLINK-2618","OBJECT_ID":"2021-044BH","EPOCH":"2026-01-17T23:23:49.771968","MEAN_MOTION":15.06390699,"ECCENTRICITY":0.00018925,"INCLINATION":53.0581,"RA_OF_ASC_NODE":309.2861,"ARG_OF_PERICENTER":99.2215,"MEAN_ANOMALY":260.8988,"EPHEMERIS_TYPE":0,"CLASSIFICATION_TYPE":"U","NORAD_CAT_ID":48693,"ELEMENT_SET_NO":999,"REV_AT_EPOCH":25662,"BSTAR":-0.00026060135,"MEAN_MOTION_DOT":-4.16e-5,"MEAN_MOTION_DDOT":0},{"OBJECT_NAME":"STARLINK-2748","OBJECT_ID":"2021-044BJ","EPOCH":"2026-01-18T00:00:02.000160","MEAN_MOTION":15.19581338,"ECCENTRICITY":0.00018232,"INCLINATION":53.1091,"RA_OF_ASC_NODE":313.8553,"ARG_OF_PERICENTER":84.1186,"MEAN_ANOMALY":35.4969,"EPHEMERIS_TYPE":0,"CLASSIFICATION_TYPE":"U","NORAD_CAT_ID":48694,"ELEMENT_SET_NO":999,"REV_AT_EPOCH":579,"BSTAR":0.060978398,"MEAN_MOTION_DOT":0.01434541,"MEAN_MOTION_DDOT":0},{"OBJECT_NAME":"STARLINK-2616","OBJECT_ID":"2021-044BK","EPOCH":"2026-01-18T00:00:02.000160","MEAN_MOTION":15.29361816,"ECCENTRICITY":0.00015412,"INCLINATION":53.1598,"RA_OF_ASC_NODE":312.9593,"ARG_OF_PERICENTER":89.5383,"MEAN_ANOMALY":72.3973,"EPHEMERIS_TYPE":0,"CLASSIFICATION_TYPE":"U","NORAD_CAT_ID":48695,"ELEMENT_SET_NO":999,"REV_AT_EPOCH":570,"BSTAR":-0.00044731999,"MEAN_MOTION_DOT":-0.00013243,"MEAN_MOTION_DDOT":0},{"OBJECT_NAME":"STARLINK-2753","OBJECT_ID":"2021-044BL","EPOCH":"2026-01-17T19:46:14.330208","MEAN_MOTION":15.06410953,"ECCENTRICITY":0.00015579,"INCLINATION":53.055,"RA_OF_ASC_NODE":320.0097,"ARG_OF_PERICENTER":92.5317,"MEAN_ANOMALY":267.585,"EPHEMERIS_TYPE":0,"CLASSIFICATION_TYPE":"U","NORAD_CAT_ID":48696,"ELEMENT_SET_NO":999,"REV_AT_EPOCH":25646,"BSTAR":8.3024989e-5,"MEAN_MOTION_DOT":9.56e-6,"MEAN_MOTION_DDOT":0},{"OBJECT_NAME":"STARLINK-3004","OBJECT_ID":"2021-059B","EPOCH":"2026-01-17T21:35:39.989760","MEAN_MOTION":15.01260097,"ECCENTRICITY":1.617e-5,"INCLINATION":97.6621,"RA_OF_ASC_NODE":145.203,"ARG_OF_PERICENTER":172.597,"MEAN_ANOMALY":187.5257,"EPHEMERIS_TYPE":0,"CLASSIFICATION_TYPE":"U","NORAD_CAT_ID":48880,"ELEMENT_SET_NO":999,"REV_AT_EPOCH":25118,"BSTAR":3.9577074e-5,"MEAN_MOTION_DOT":4.49e-6,"MEAN_MOTION_DDOT":0},{"OBJECT_NAME":"STARLINK-3005","OBJECT_ID":"2021-059C","EPOCH":"2026-01-17T21:26:04.846560","MEAN_MOTION":15.01258315,"ECCENTRICITY":0.00017725,"INCLINATION":97.661,"RA_OF_ASC_NODE":145.1513,"ARG_OF_PERICENTER":88.0711,"MEAN_ANOMALY":272.0716,"EPHEMERIS_TYPE":0,"CLASSIFICATION_TYPE":"U","NORAD_CAT_ID":48881,"ELEMENT_SET_NO":999,"REV_AT_EPOCH":25118,"BSTAR":2.2974088e-5,"MEAN_MOTION_DOT":2.36e-6,"MEAN_MOTION_DDOT":0},{"OBJECT_NAME":"STARLINK-3096","OBJECT_ID":"2021-082B","EPOCH":"2026-01-17T18:06:52.389792","MEAN_MOTION":14.98325105,"ECCENTRICITY":0.00030603,"INCLINATION":70.0003,"RA_OF_ASC_NODE":22.8699,"ARG_OF_PERICENTER":270.2439,"MEAN_ANOMALY":89.837,"EPHEMERIS_TYPE":0,"CLASSIFICATION_TYPE":"U","NORAD_CAT_ID":49131,"ELEMENT_SET_NO":999,"REV_AT_EPOCH":23933,"BSTAR":-7.7039378e-5,"MEAN_MOTION_DOT":-1.012e-5,"MEAN_MOTION_DDOT":0},{"OBJECT_NAME":"STARLINK-3090","OBJECT_ID":"2021-082C","EPOCH":"2026-01-17T12:01:02.546688","MEAN_MOTION":14.98323102,"ECCENTRICITY":0.00029539,"INCLINATION":70.0002,"RA_OF_ASC_NODE":63.3971,"ARG_OF_PERICENTER":275.3087,"MEAN_ANOMALY":84.7735,"EPHEMERIS_TYPE":0,"CLASSIFICATION_TYPE":"U","NORAD_CAT_ID":49132,"ELEMENT_SET_NO":999,"REV_AT_EPOCH":23831,"BSTAR":3.2603287e-5,"MEAN_MOTION_DOT":2.96e-6,"MEAN_MOTION_DDOT":0},{"OBJECT_NAME":"STARLINK-3077","OBJECT_ID":"2021-082D","EPOCH":"2026-01-17T12:25:03.813600","MEAN_MOTION":14.98332345,"ECCENTRICITY":0.00030579,"INCLINATION":69.9997,"RA_OF_ASC_NODE":63.4802,"ARG_OF_PERICENTER":270.854,"MEAN_ANOMALY":89.2269,"EPHEMERIS_TYPE":0,"CLASSIFICATION_TYPE":"U","NORAD_CAT_ID":49133,"ELEMENT_SET_NO":999,"REV_AT_EPOCH":23831,"BSTAR":2.8247139e-5,"MEAN_MOTION_DOT":2.44e-6,"MEAN_MOTION_DDOT":0}]
