STARLINK-2751           
1 48685U 21044AZ  26017.49391130 -.00000999  00000+0 -48219-4 0  9994
2 48685  53.0554 301.4933 0001350  84.7721 275.3422 15.06388336256692
STARLINK-2629           
1 48686U 21044BA  26017.81966331  .00002850  00000+0  21026-3 0  9994
2 48686  53.0529 305.2627 0001457  79.4411 280.6742 15.06382789256669
STARLINK-2627           
1 48687U 21044BB  26017.92744315 -.00002059  00000+0 -11941-3 0  9991
2 48687  53.0556 294.4996 0001459  82.5567 277.5588 15.06394362256828
STARLINK-2742           
1 48688U 21044BC  26017.93114708 -.00000670  00000+0 -26074-4 0  9991
2 48688  53.0582 294.4836 0001657 102.2464 257.8711 15.06392592256829
STARLINK-2740           
1 48690U 21044BE  26017.80995585  .00000333  00000+0  41232-4 0  9997
2 48690  53.0563 310.0244 0001631 102.4024 257.7147 15.06399217256592
STARLINK-2750           
1 48691U 21044BF  26017.98182336 -.00001176  00000+0 -60057-4 0  9993
2 48691  53.0544 304.2540 0001613  90.1305 269.9869 15.06392978256695
STARLINK-2752           
1 48692U 21044BG  26017.50265762  .00000461  00000+0  49818-4 0  9993
2 48692  53.0547 306.5307 0001405  90.1021 270.0129 15.06400087256625
STARLINK-2618           
1 48693U 21044BH  26017.97488162 -.00004160  00000+0 -26060-3 0  9991
2 48693  53.0581 309.2861 0001892  99.2215 260.8988 15.06390699256621
STARLINK-2748           
1 48694U 21044BJ  26018.00002315  .01434541  00000+0  60978-1 0  9992
2 48694  53.1091 313.8553 0001823  84.1186  35.4969 15.19581338  5793
STARLINK-2616           
1 48695U 21044BK  26018.00002315 -.00013243  00000+0 -44732-3 0  9998
2 48695  53.1598 312.9593 0001541  89.5383  72.3973 15.29361816  5709
STARLINK-2753           
1 48696U 21044BL  26017.82377697  .00000956  00000+0  83025-4 0  9990
2 48696  53.0550 320.0097 0001557  92.5317 267.5850 15.06410953256469
STARLINK-3004           
1 48880U 21059B   26017.89976840  .00000449  00000+0  39577-4 0  9993
2 48880  97.6621 145.2030 0000161 172.5970 187.5257 15.01260097251188
STARLINK-3005           
1 48881U 21059C   26017.89311165  .00000236  00000+0  22974-4 0  9994
2 48881  97.6610 145.1513 0001772  88.0711 272.0716 15.01258315251185
STARLINK-3096           
1 49131U 21082B   26017.75477303 -.00001012  00000+0 -77039-4 0  9998
2 49131  70.0003  22.8699 0003060 270.2439  89.8370 14.98325105239335
STARLINK-3090           
1 49132U 21082C   26017.50072392  .00000296  00000+0  32603-4 0  9990
2 49132  70.0002  63.3971 0002953 275.3087  84.7735 14.98323102238314
STARLINK-3077           
1 49133U 21082D   26017.51740525  .00000244  00000+0  28247-4 0  9994
2 49133  69.9997  63.4802 0003057 270.8540  89.2269 14.98332345238310
